IRIDIUM 166             
1 43570U 18061B   24241.51743474  .00000875  00000+0  30524-3 0  9999
2 43570  86.4013 331.5918 0002087  91.0185 269.1250 14.34219968319133
IRIDIUM 158             
1 43571U 18061C   24240.64849875  .00000668  00000+0  23147-3 0  9998
2 43571  86.4011 331.9634 0001814  96.0383 264.1019 14.34217760318970
IRIDIUM 165             
1 43572U 18061D   24240.67387083  .00000116  00000+0  34530-4 0  9997
2 43572  86.4016 331.9875 0002086  96.5984 263.5450 14.34217663319006
IRIDIUM 155             
1 43573U 18061E   24241.19396425  .00000082  00000+0  22398-4 0  9997
2 43573  86.4009 331.6720 0001945  90.9906 269.1513 14.34217495319050
IRIDIUM 154             
1 43574U 18061F   24241.52377843  .00000341  00000+0  11473-3 0  9997
2 43574  86.4014 331.6353 0002393  94.5313 265.6156 14.34219290319148
IRIDIUM 163             
1 43575U 18061G   24240.52799180  .00000610  00000+0  21080-3 0  9993
2 43575  86.4009 331.9872 0002330  92.3514 267.7948 14.34217280318971
IRIDIUM 156             
1 43576U 18061H   24241.54914802  .00000402  00000+0  13644-3 0  9993
2 43576  86.4012 331.5674 0001982  98.1999 261.9422 14.34217930319106
IRIDIUM 164             
1 43577U 18061J   24241.53012184  .00000102  00000+0  29479-4 0  9996
2 43577  86.4014 331.6051 0002328 100.3467 259.7992 14.34217837319158
